IRIDIUM 144             
1 43249U 18030A   25250.94716869  .00000343  00000+0  11538-3 0  9998
2 43249  86.3942  48.3743 0002205  90.3798 269.7651 14.34218527389687
IRIDIUM 149             
1 43250U 18030B   25251.16281671  .00000020  00000+0  84334-7 0  9993
2 43250  86.3941  48.2546 0002133  89.6409 270.5031 14.34217440389739
IRIDIUM 157             
1 43251U 18030C   25251.18184335  .00000045  00000+0  91203-5 0  9993
2 43251  86.3944  48.2933 0001965  88.1555 271.9866 14.34217997389717
IRIDIUM 140             
1 43252U 18030D   25251.20087172  .00000005  00000+0 -51066-5 0  9998
2 43252  86.3939  48.2988 0002172  93.6736 266.4709 14.34218376389778
IRIDIUM 145             
1 43253U 18030E   25251.18818740  .00000076  00000+0  20044-4 0  9997
2 43253  86.3942  48.2765 0002573  88.8001 271.3490 14.34217169389706
IRIDIUM 146             
1 43254U 18030F   25251.16915921  .00000315  00000+0  10548-3 0  9998
2 43254  86.3942  48.2978 0002473  89.0617 271.0862 14.34218766389713
IRIDIUM 148             
1 43255U 18030G   25251.13744543 -.00000041  00000+0 -21704-4 0  9991
2 43255  86.3940  48.3500 0002038  87.2393 272.9036 14.34217205389745
IRIDIUM 142             
1 43256U 18030H   25250.96619715  .00000205  00000+0  65992-4 0  9991
2 43256  86.3940  48.3207 0002606  87.2364 272.9130 14.34218445389684
